start=new Date('2021-11-11T00:00:00.000Z').valueOf();
sats=[{"MEAN_ANOMALY":"283.3677","ELEMENT_SET_NO":"999","PERIOD":"95.592","OBJECT_NAME":"STARLINK-1278","SEMIMAJOR_AXIS":"6925.344","RCS_SIZE":"LARGE","INCLINATION":"53.0549","NORAD_CAT_ID":"45408","BSTAR":"0.00012777000000","CLASSIFICATION_TYPE":"U","REF_FRAME":"TEME","FILE":"3211038","TIME_SYSTEM":"UTC","MEAN_MOTION_DDOT":"0.0000000000000","MEAN_MOTION_DOT":"0.00001622","PERIAPSIS":"546.316","CENTER_NAME":"EARTH","GP_ID":"189422240","ECCENTRICITY":"0.00012900","ARG_OF_PERICENTER":"76.7456","SITE":"AFETR","REV_AT_EPOCH":"9132","TLE_LINE1":"1 45408U 20019BA  21314.81738650  .00001622  00000-0  12777-3 0  9990","OBJECT_TYPE":"PAYLOAD","EPHEMERIS_TYPE":"0","DECAY_DATE":null,"APOAPSIS":"548.102","RA_OF_ASC_NODE":"58.9427","TLE_LINE2":"2 45408  53.0549  58.9427 0001290  76.7456 283.3677 15.06401465 91324","OBJECT_ID":"2020-019BA","MEAN_MOTION":"15.06401465","COUNTRY_CODE":"US","MEAN_ELEMENT_THEORY":"SGP4","LAUNCH_DATE":"2020-03-18","EPOCH":"2021-11-10T19:37:02.193600"},{"COUNTRY_CODE":"US","OBJECT_ID":"2020-019BB","TLE_LINE2":"2 45409  53.0564  29.8658 0001161  85.0820 275.0301 15.06416475 91712","MEAN_MOTION":"15.06416475","LAUNCH_DATE":"2020-03-18","EPOCH":"2021-11-10T14:43:46.243488","MEAN_ELEMENT_THEORY":"SGP4","DECAY_DATE":null,"APOAPSIS":"547.967","EPHEMERIS_TYPE":"0","RA_OF_ASC_NODE":"29.8658","TLE_LINE1":"1 45409U 20019BB  21314.61372967  .00004024  00000-0  28872-3 0  9996","REV_AT_EPOCH":"9171","OBJECT_TYPE":"PAYLOAD","SITE":"AFETR","ECCENTRICITY":"0.00011610","ARG_OF_PERICENTER":"85.0820","TIME_SYSTEM":"UTC","PERIAPSIS":"546.359","CENTER_NAME":"EARTH","MEAN_MOTION_DOT":"0.00004024","GP_ID":"189402246","MEAN_MOTION_DDOT":"0.0000000000000","BSTAR":"0.00028872000000","FILE":"3210997","CLASSIFICATION_TYPE":"U","REF_FRAME":"TEME","PERIOD":"95.591","ELEMENT_SET_NO":"999","OBJECT_NAME":"STARLINK-1282","MEAN_ANOMALY":"275.0301","RCS_SIZE":"LARGE","NORAD_CAT_ID":"45409","INCLINATION":"53.0564","SEMIMAJOR_AXIS":"6925.298"},{"EPOCH":"2021-11-10T09:35:15.916128","LAUNCH_DATE":"2020-03-18","MEAN_ELEMENT_THEORY":"SGP4","COUNTRY_CODE":"US","TLE_LINE2":"2 45410  53.0560 330.8670 0004167   5.5590 354.5473 15.71462371 92508","MEAN_MOTION":"15.71462371","OBJECT_ID":"2020-019BC","RA_OF_ASC_NODE":"330.8670","APOAPSIS":"357.524","DECAY_DATE":null,"EPHEMERIS_TYPE":"0","OBJECT_TYPE":"PAYLOAD","TLE_LINE1":"1 45410U 20019BC  21314.39948977  .00003424  00000-0  30912-4 0  9995","REV_AT_EPOCH":"9250","SITE":"AFETR","ARG_OF_PERICENTER":"5.5590","ECCENTRICITY":"0.00041670","GP_ID":"189373601","CENTER_NAME":"EARTH","PERIAPSIS":"351.913","MEAN_MOTION_DOT":"0.00003424","MEAN_MOTION_DDOT":"0.0000000000000","TIME_SYSTEM":"UTC","FILE":"3210764","REF_FRAME":"TEME","CLASSIFICATION_TYPE":"U","BSTAR":"0.00003091200000","NORAD_CAT_ID":"45410","INCLINATION":"53.0560","RCS_SIZE":"LARGE","SEMIMAJOR_AXIS":"6732.854","OBJECT_NAME":"STARLINK-1285","ELEMENT_SET_NO":"999","PERIOD":"91.634","MEAN_ANOMALY":"354.5473"},{"TLE_LINE2":"2 45411  53.0559  29.7858 0001189  76.9224 283.1897 15.06391112 91739","MEAN_MOTION":"15.06391112","OBJECT_ID":"2020-019BD","COUNTRY_CODE":"US","MEAN_ELEMENT_THEORY":"SGP4","LAUNCH_DATE":"2020-03-18","EPOCH":"2021-11-10T15:05:00.905280","SITE":"AFETR","TLE_LINE1":"1 45411U 20019BD  21314.62848270  .00001816  00000-0  14081-3 0  9998","REV_AT_EPOCH":"9173","OBJECT_TYPE":"PAYLOAD","EPHEMERIS_TYPE":"0","DECAY_DATE":null,"APOAPSIS":"548.064","RA_OF_ASC_NODE":"29.7858","TIME_SYSTEM":"UTC","MEAN_MOTION_DDOT":"0.0000000000000","PERIAPSIS":"546.417","CENTER_NAME":"EARTH","MEAN_MOTION_DOT":"0.00001816","GP_ID":"189422917","ECCENTRICITY":"0.00011890","ARG_OF_PERICENTER":"76.9224","MEAN_ANOMALY":"283.1897","ELEMENT_SET_NO":"999","PERIOD":"95.593","OBJECT_NAME":"STARLINK-1293","SEMIMAJOR_AXIS":"6925.376","RCS_SIZE":"LARGE","INCLINATION":"53.0559","NORAD_CAT_ID":"45411","BSTAR":"0.00014081000000","CLASSIFICATION_TYPE":"U","REF_FRAME":"TEME","FILE":"3211038"},{"EPOCH":"2021-11-10T17:28:19.882560","LAUNCH_DATE":"2020-03-18","MEAN_ELEMENT_THEORY":"SGP4","COUNTRY_CODE":"US","TLE_LINE2":"2 45412  53.0569  29.3504 0001506  74.2565 285.8590 15.06409342 91720","MEAN_MOTION":"15.06409342","OBJECT_ID":"2020-019BE","RA_OF_ASC_NODE":"29.3504","APOAPSIS":"548.228","DECAY_DATE":null,"EPHEMERIS_TYPE":"0","OBJECT_TYPE":"PAYLOAD","REV_AT_EPOCH":"9172","TLE_LINE1":"1 45412U 20019BE  21314.72800790  .00001160  00000-0  96735-4 0  9994","SITE":"AFETR","ARG_OF_PERICENTER":"74.2565","ECCENTRICITY":"0.00015060","GP_ID":"189421741","PERIAPSIS":"546.142","MEAN_MOTION_DOT":"0.00001160","CENTER_NAME":"EARTH","MEAN_MOTION_DDOT":"0.0000000000000","TIME_SYSTEM":"UTC","FILE":"3211038","REF_FRAME":"TEME","CLASSIFICATION_TYPE":"U","BSTAR":"0.00009673500000","NORAD_CAT_ID":"45412","INCLINATION":"53.0569","RCS_SIZE":"LARGE","SEMIMAJOR_AXIS":"6925.320","OBJECT_NAME":"STARLINK-1296","ELEMENT_SET_NO":"999","PERIOD":"95.592","MEAN_ANOMALY":"285.8590"},{"LAUNCH_DATE":"2020-03-18","EPOCH":"2021-11-10T16:35:15.486144","MEAN_ELEMENT_THEORY":"SGP4","COUNTRY_CODE":"US","MEAN_MOTION":"15.06415344","TLE_LINE2":"2 45413  53.0540  29.5205 0001069  73.5746 286.5361 15.06415344 91810","OBJECT_ID":"2020-019BF","TLE_LINE1":"1 45413U 20019BF  21314.69115146  .00005645  00000-0  39740-3 0  9999","REV_AT_EPOCH":"9181","OBJECT_TYPE":"PAYLOAD","SITE":"AFETR","RA_OF_ASC_NODE":"29.5205","DECAY_DATE":null,"APOAPSIS":"547.907","EPHEMERIS_TYPE":"0","PERIAPSIS":"546.426","MEAN_MOTION_DOT":"0.00005645","CENTER_NAME":"EARTH","GP_ID":"189422992","MEAN_MOTION_DDOT":"0.0000000000000","TIME_SYSTEM":"UTC","ARG_OF_PERICENTER":"73.5746","ECCENTRICITY":"0.00010690","RCS_SIZE":"LARGE","INCLINATION":"53.0540","NORAD_CAT_ID":"45413","SEMIMAJOR_AXIS":"6925.302","ELEMENT_SET_NO":"999","PERIOD":"95.591","OBJECT_NAME":"STARLINK-1298","MEAN_ANOMALY":"286.5361","FILE":"3211038","CLASSIFICATION_TYPE":"U","REF_FRAME":"TEME","BSTAR":"0.00039740000000"},{"ELEMENT_SET_NO":"999","PERIOD":"95.591","OBJECT_NAME":"STARLINK-1309","MEAN_ANOMALY":"289.4506","RCS_SIZE":"LARGE","INCLINATION":"53.0536","NORAD_CAT_ID":"45414","SEMIMAJOR_AXIS":"6925.300","BSTAR":"0.00041409000000","FILE":"3210804","CLASSIFICATION_TYPE":"U","REF_FRAME":"TEME","TIME_SYSTEM":"UTC","PERIAPSIS":"546.384","CENTER_NAME":"EARTH","MEAN_MOTION_DOT":"0.00005894","GP_ID":"189374646","MEAN_MOTION_DDOT":"0.0000000000000","ECCENTRICITY":"0.00011280","ARG_OF_PERICENTER":"70.6605","TLE_LINE1":"1 45414U 20019BG  21314.47735811  .00005894  00000-0  41409-3 0  9994","REV_AT_EPOCH":"9169","OBJECT_TYPE":"PAYLOAD","SITE":"AFETR","DECAY_DATE":null,"APOAPSIS":"547.946","EPHEMERIS_TYPE":"0","RA_OF_ASC_NODE":"30.4793","COUNTRY_CODE":"US","TLE_LINE2":"2 45414  53.0536  30.4793 0001128  70.6605 289.4506 15.06415893 91695","MEAN_MOTION":"15.06415893","OBJECT_ID":"2020-019BG","LAUNCH_DATE":"2020-03-18","EPOCH":"2021-11-10T11:27:23.740704","MEAN_ELEMENT_THEORY":"SGP4"},{"LAUNCH_DATE":"2020-03-18","EPOCH":"2021-11-10T12:04:32.439936","MEAN_ELEMENT_THEORY":"SGP4","COUNTRY_CODE":"US","TLE_LINE2":"2 45415  53.0543  30.3496 0001611  71.4369 288.6795 15.06391752 91717","MEAN_MOTION":"15.06391752","OBJECT_ID":"2020-019BH","REV_AT_EPOCH":"9171","TLE_LINE1":"1 45415U 20019BH  21314.50315324  .00002222  00000-0  16809-3 0  9990","OBJECT_TYPE":"PAYLOAD","SITE":"AFETR","RA_OF_ASC_NODE":"30.3496","DECAY_DATE":null,"APOAPSIS":"548.355","EPHEMERIS_TYPE":"0","PERIAPSIS":"546.123","MEAN_MOTION_DOT":"0.00002222","CENTER_NAME":"EARTH","GP_ID":"189423417","MEAN_MOTION_DDOT":"0.0000000000000","TIME_SYSTEM":"UTC","ARG_OF_PERICENTER":"71.4369","ECCENTRICITY":"0.00016110","RCS_SIZE":"LARGE","NORAD_CAT_ID":"45415","INCLINATION":"53.0543","SEMIMAJOR_AXIS":"6925.374","PERIOD":"95.593","ELEMENT_SET_NO":"999","OBJECT_NAME":"STARLINK-1316","MEAN_ANOMALY":"288.6795","FILE":"3211038","CLASSIFICATION_TYPE":"U","REF_FRAME":"TEME","BSTAR":"0.00016809000000"},{"OBJECT_TYPE":"PAYLOAD","TLE_LINE1":"1 45416U 20019BJ  21314.53632242  .00001721  00000-0  13443-3 0  9999","REV_AT_EPOCH":"9170","SITE":"AFETR","APOAPSIS":"548.022","DECAY_DATE":null,"EPHEMERIS_TYPE":"0","RA_OF_ASC_NODE":"30.2106","COUNTRY_CODE":"US","OBJECT_ID":"2020-019BJ","TLE_LINE2":"2 45416  53.0565  30.2106 0001141  68.7668 291.3442 15.06394102 91709","MEAN_MOTION":"15.06394102","EPOCH":"2021-11-10T12:52:18.257088","LAUNCH_DATE":"2020-03-18","MEAN_ELEMENT_THEORY":"SGP4","OBJECT_NAME":"STARLINK-1318","ELEMENT_SET_NO":"999","PERIOD":"95.593","MEAN_ANOMALY":"291.3442","INCLINATION":"53.0565","NORAD_CAT_ID":"45416","RCS_SIZE":"LARGE","SEMIMAJOR_AXIS":"6925.367","BSTAR":"0.00013443000000","FILE":"3211038","REF_FRAME":"TEME","CLASSIFICATION_TYPE":"U","TIME_SYSTEM":"UTC","GP_ID":"189422241","MEAN_MOTION_DOT":"0.00001721","PERIAPSIS":"546.441","CENTER_NAME":"EARTH","MEAN_MOTION_DDOT":"0.0000000000000","ECCENTRICITY":"0.00011410","ARG_OF_PERICENTER":"68.7668"},{"COUNTRY_CODE":"US","MEAN_MOTION":"15.06401204","TLE_LINE2":"2 45417  53.0557  59.5974 0001273  88.2418 271.8717 15.06401204 91579","OBJECT_ID":"2020-019BK","LAUNCH_DATE":"2020-03-18","EPOCH":"2021-11-10T16:10:00.910560","MEAN_ELEMENT_THEORY":"SGP4","DECAY_DATE":null,"APOAPSIS":"548.091","EPHEMERIS_TYPE":"0","RA_OF_ASC_NODE":"59.5974","REV_AT_EPOCH":"9157","TLE_LINE1":"1 45417U 20019BK  21314.67362165 -.00000232  00000-0  33110-5 0  9991","OBJECT_TYPE":"PAYLOAD","SITE":"AFETR","ECCENTRICITY":"0.00012730","ARG_OF_PERICENTER":"88.2418","TIME_SYSTEM":"UTC","CENTER_NAME":"EARTH","PERIAPSIS":"546.328","MEAN_MOTION_DOT":"-0.00000232","GP_ID":"189422493","MEAN_MOTION_DDOT":"0.0000000000000","BSTAR":"0.00000331100000","FILE":"3211038","CLASSIFICATION_TYPE":"U","REF_FRAME":"TEME","PERIOD":"95.592","ELEMENT_SET_NO":"999","OBJECT_NAME":"STARLINK-1286","MEAN_ANOMALY":"271.8717","RCS_SIZE":"LARGE","INCLINATION":"53.0557","NORAD_CAT_ID":"45417","SEMIMAJOR_AXIS":"6925.345"}];
